ONEWEB-0063             
1 45448U 20020AA  23354.64010357  .00000488  00000+0  13401-2 0  9992
2 45448  87.8972 201.8105 0001513  69.6897 290.4393 13.11419101183486
ONEWEB-0019             
1 45449U 20020AB  23354.61412228 -.00000472  00000+0 -13682-2 0  9999
2 45449  87.8968 201.8116 0001670  84.3783 275.7536 13.11418393183326
ONEWEB-0094             
1 45450U 20020AC  23355.04567951  .00000063  00000+0  13010-3 0  9993
2 45450  87.9145 186.6049 0001475  87.4511 272.6789 13.17447366186582
ONEWEB-0087             
1 45451U 20020AD  23354.64659900  .00000621  00000+0  17171-2 0  9996
2 45451  87.8955 201.7906 0001121  85.2067 274.9189 13.11416996183374
ONEWEB-0082             
1 45452U 20020AE  23355.10600354  .00000555  00000+0  15301-2 0  9997
2 45452  87.8971 201.6930 0001501  88.4873 271.6427 13.11417031183539
ONEWEB-0050             
1 45453U 20020AF  23354.75839240  .00008352  00000+0  65937-3 0  9990
2 45453  87.9997  73.8243 0023956   1.0589 359.0691 15.00364657204867
ONEWEB-0034             
1 45454U 20020AG  23354.59139775  .00000065  00000+0  14742-3 0  9990
2 45454  87.8970 201.8126 0001351  86.3098 273.8184 13.11414384183383
ONEWEB-0060             
1 45455U 20020AH  23354.67580551 -.00000212  00000+0 -63361-3 0  9999
2 45455  87.8964 201.7923 0001306  82.2600 277.8676 13.11414476183343
